CCSDS_OMM_VERS = 2.0
CREATION_DATE  = 
ORIGINATOR     = 

OBJECT_NAME    = STARLINK-36080
OBJECT_ID      = 2025-278L
CENTER_NAME    = EARTH
REF_FRAME      = TEME
TIME_SYSTEM    = UTC
MEAN_ELEMENT_THEORY = SGP/SGP4

EPOCH          = 2025-12-11T20:00:01.999872
MEAN_MOTION    = 15.89588118
ECCENTRICITY   = .00018594
INCLINATION    = 42.9973
RA_OF_ASC_NODE = 257.6543
ARG_OF_PERICENTER = 257.4929
MEAN_ANOMALY   = 12.9732

EPHEMERIS_TYPE = 0
CLASSIFICATION_TYPE = U
NORAD_CAT_ID   = 66801
ELEMENT_SET_NO = 999
REV_AT_EPOCH   = 281
BSTAR          = -.46779738E-2
MEAN_MOTION_DOT = -.1264074E-1
MEAN_MOTION_DDOT = 0

CCSDS_OMM_VERS = 2.0
CREATION_DATE  = 
ORIGINATOR     = 

OBJECT_NAME    = STARLINK-35604
OBJECT_ID      = 2025-278M
CENTER_NAME    = EARTH
REF_FRAME      = TEME
TIME_SYSTEM    = UTC
MEAN_ELEMENT_THEORY = SGP/SGP4

EPOCH          = 2025-12-11T20:00:01.999872
MEAN_MOTION    = 15.89439584
ECCENTRICITY   = .00017898
INCLINATION    = 42.9977
RA_OF_ASC_NODE = 257.6897
ARG_OF_PERICENTER = 257.0797
MEAN_ANOMALY   = 359.6735

EPHEMERIS_TYPE = 0
CLASSIFICATION_TYPE = U
NORAD_CAT_ID   = 66802
ELEMENT_SET_NO = 999
REV_AT_EPOCH   = 281
BSTAR          = -.45762488E-2
MEAN_MOTION_DOT = -.1231215E-1
MEAN_MOTION_DDOT = 0

CCSDS_OMM_VERS = 2.0
CREATION_DATE  = 
ORIGINATOR     = 

OBJECT_NAME    = STARLINK-35565
OBJECT_ID      = 2025-278N
CENTER_NAME    = EARTH
REF_FRAME      = TEME
TIME_SYSTEM    = UTC
MEAN_ELEMENT_THEORY = SGP/SGP4

EPOCH          = 2025-12-11T20:00:01.999872
MEAN_MOTION    = 15.89490265
ECCENTRICITY   = .0001825
INCLINATION    = 42.9976
RA_OF_ASC_NODE = 257.6783
ARG_OF_PERICENTER = 255.9827
MEAN_ANOMALY   = 5.2830

EPHEMERIS_TYPE = 0
CLASSIFICATION_TYPE = U
NORAD_CAT_ID   = 66803
ELEMENT_SET_NO = 999
REV_AT_EPOCH   = 290
BSTAR          = -.46108332E-2
MEAN_MOTION_DOT = -.1242379E-1
MEAN_MOTION_DDOT = 0

CCSDS_OMM_VERS = 2.0
CREATION_DATE  = 
ORIGINATOR     = 

OBJECT_NAME    = STARLINK-36038
OBJECT_ID      = 2025-278P
CENTER_NAME    = EARTH
REF_FRAME      = TEME
TIME_SYSTEM    = UTC
MEAN_ELEMENT_THEORY = SGP/SGP4

EPOCH          = 2025-12-11T20:00:01.999872
MEAN_MOTION    = 15.89512076
ECCENTRICITY   = .00018464
INCLINATION    = 42.9977
RA_OF_ASC_NODE = 257.6720
ARG_OF_PERICENTER = 258.4447
MEAN_ANOMALY   = 5.3747

EPHEMERIS_TYPE = 0
CLASSIFICATION_TYPE = U
NORAD_CAT_ID   = 66804
ELEMENT_SET_NO = 999
REV_AT_EPOCH   = 281
BSTAR          = -.46435934E-2
MEAN_MOTION_DOT = -.1251476E-1
MEAN_MOTION_DDOT = 0

CCSDS_OMM_VERS = 2.0
CREATION_DATE  = 
ORIGINATOR     = 

OBJECT_NAME    = STARLINK-36049
OBJECT_ID      = 2025-278Q
CENTER_NAME    = EARTH
REF_FRAME      = TEME
TIME_SYSTEM    = UTC
MEAN_ELEMENT_THEORY = SGP/SGP4

EPOCH          = 2025-12-11T20:00:01.999872
MEAN_MOTION    = 15.89564867
ECCENTRICITY   = .00018333
INCLINATION    = 42.9975
RA_OF_ASC_NODE = 257.6605
ARG_OF_PERICENTER = 258.3771
MEAN_ANOMALY   = 9.8372

EPHEMERIS_TYPE = 0
CLASSIFICATION_TYPE = U
NORAD_CAT_ID   = 66805
ELEMENT_SET_NO = 999
REV_AT_EPOCH   = 281
BSTAR          = -.46716325E-2
MEAN_MOTION_DOT = -.12612E-1
MEAN_MOTION_DDOT = 0

CCSDS_OMM_VERS = 2.0
CREATION_DATE  = 
ORIGINATOR     = 

OBJECT_NAME    = STARLINK-36069
OBJECT_ID      = 2025-278R
CENTER_NAME    = EARTH
REF_FRAME      = TEME
TIME_SYSTEM    = UTC
MEAN_ELEMENT_THEORY = SGP/SGP4

EPOCH          = 2025-12-11T20:00:01.999872
MEAN_MOTION    = 15.89542432
ECCENTRICITY   = .00018219
INCLINATION    = 42.9978
RA_OF_ASC_NODE = 257.6671
ARG_OF_PERICENTER = 256.5209
MEAN_ANOMALY   = 9.2226

EPHEMERIS_TYPE = 0
CLASSIFICATION_TYPE = U
NORAD_CAT_ID   = 66806
ELEMENT_SET_NO = 999
REV_AT_EPOCH   = 260
BSTAR          = -.46503145E-2
MEAN_MOTION_DOT = -.1254801E-1
MEAN_MOTION_DDOT = 0

CCSDS_OMM_VERS = 2.0
CREATION_DATE  = 
ORIGINATOR     = 

OBJECT_NAME    = STARLINK-36000
OBJECT_ID      = 2025-278S
CENTER_NAME    = EARTH
REF_FRAME      = TEME
TIME_SYSTEM    = UTC
MEAN_ELEMENT_THEORY = SGP/SGP4

EPOCH          = 2025-12-11T20:00:01.999872
MEAN_MOTION    = 15.89616008
ECCENTRICITY   = .00018889
INCLINATION    = 42.9977
RA_OF_ASC_NODE = 257.6494
ARG_OF_PERICENTER = 258.9778
MEAN_ANOMALY   = 13.7383

EPHEMERIS_TYPE = 0
CLASSIFICATION_TYPE = U
NORAD_CAT_ID   = 66807
ELEMENT_SET_NO = 999
REV_AT_EPOCH   = 287
BSTAR          = -.47135413E-2
MEAN_MOTION_DOT = -.1274226E-1
MEAN_MOTION_DDOT = 0

CCSDS_OMM_VERS = 2.0
CREATION_DATE  = 
ORIGINATOR     = 

OBJECT_NAME    = STARLINK-36071
OBJECT_ID      = 2025-278T
CENTER_NAME    = EARTH
REF_FRAME      = TEME
TIME_SYSTEM    = UTC
MEAN_ELEMENT_THEORY = SGP/SGP4

EPOCH          = 2025-12-11T20:00:01.999872
MEAN_MOTION    = 15.89642217
ECCENTRICITY   = .00018222
INCLINATION    = 42.9978
RA_OF_ASC_NODE = 257.6437
ARG_OF_PERICENTER = 256.7346
MEAN_ANOMALY   = 18.1161

EPHEMERIS_TYPE = 0
CLASSIFICATION_TYPE = U
NORAD_CAT_ID   = 66808
ELEMENT_SET_NO = 999
REV_AT_EPOCH   = 281
BSTAR          = -.47257519E-2
MEAN_MOTION_DOT = -.1278624E-1
MEAN_MOTION_DDOT = 0

CCSDS_OMM_VERS = 2.0
CREATION_DATE  = 
ORIGINATOR     = 

OBJECT_NAME    = STARLINK-35979
OBJECT_ID      = 2025-278U
CENTER_NAME    = EARTH
REF_FRAME      = TEME
TIME_SYSTEM    = UTC
MEAN_ELEMENT_THEORY = SGP/SGP4

EPOCH          = 2025-12-11T20:00:01.999872
MEAN_MOTION    = 15.89711649
ECCENTRICITY   = .00019035
INCLINATION    = 42.9976
RA_OF_ASC_NODE = 257.6250
ARG_OF_PERICENTER = 255.5542
MEAN_ANOMALY   = 26.7831

EPHEMERIS_TYPE = 0
CLASSIFICATION_TYPE = U
NORAD_CAT_ID   = 66809
ELEMENT_SET_NO = 999
REV_AT_EPOCH   = 281
BSTAR          = -.47797073E-2
MEAN_MOTION_DOT = -.129567E-1
MEAN_MOTION_DDOT = 0

CCSDS_OMM_VERS = 2.0
CREATION_DATE  = 
ORIGINATOR     = 

OBJECT_NAME    = STARLINK-36046
OBJECT_ID      = 2025-278V
CENTER_NAME    = EARTH
REF_FRAME      = TEME
TIME_SYSTEM    = UTC
MEAN_ELEMENT_THEORY = SGP/SGP4

EPOCH          = 2025-12-11T20:00:01.999872
MEAN_MOTION    = 15.89665203
ECCENTRICITY   = .0001869
INCLINATION    = 42.9978
RA_OF_ASC_NODE = 257.6377
ARG_OF_PERICENTER = 256.5780
MEAN_ANOMALY   = 20.8210

EPHEMERIS_TYPE = 0
CLASSIFICATION_TYPE = U
NORAD_CAT_ID   = 66810
ELEMENT_SET_NO = 999
REV_AT_EPOCH   = 258
BSTAR          = -.47494314E-2
MEAN_MOTION_DOT = -.1285669E-1
MEAN_MOTION_DDOT = 0

CCSDS_OMM_VERS = 2.0
CREATION_DATE  = 
ORIGINATOR     = 

OBJECT_NAME    = STARLINK-36045
OBJECT_ID      = 2025-278W
CENTER_NAME    = EARTH
REF_FRAME      = TEME
TIME_SYSTEM    = UTC
MEAN_ELEMENT_THEORY = SGP/SGP4

EPOCH          = 2025-12-11T20:00:01.999872
MEAN_MOTION    = 15.89687543
ECCENTRICITY   = .00018476
INCLINATION    = 42.9978
RA_OF_ASC_NODE = 257.6312
ARG_OF_PERICENTER = 259.5260
MEAN_ANOMALY   = 20.4632

EPHEMERIS_TYPE = 0
CLASSIFICATION_TYPE = U
NORAD_CAT_ID   = 66811
ELEMENT_SET_NO = 999
REV_AT_EPOCH   = 281
BSTAR          = -.47771761E-2
MEAN_MOTION_DOT = -.1293604E-1
MEAN_MOTION_DDOT = 0

CCSDS_OMM_VERS = 2.0
CREATION_DATE  = 
ORIGINATOR     = 

OBJECT_NAME    = STARLINK-36054
OBJECT_ID      = 2025-278X
CENTER_NAME    = EARTH
REF_FRAME      = TEME
TIME_SYSTEM    = UTC
MEAN_ELEMENT_THEORY = SGP/SGP4

EPOCH          = 2025-12-11T20:00:01.999872
MEAN_MOTION    = 15.89740598
ECCENTRICITY   = .00018421
INCLINATION    = 42.9978
RA_OF_ASC_NODE = 257.6198
ARG_OF_PERICENTER = 259.3142
MEAN_ANOMALY   = 25.0889

EPHEMERIS_TYPE = 0
CLASSIFICATION_TYPE = U
NORAD_CAT_ID   = 66812
ELEMENT_SET_NO = 999
REV_AT_EPOCH   = 281
BSTAR          = -.48078236E-2
MEAN_MOTION_DOT = -.1304066E-1
MEAN_MOTION_DDOT = 0

