STARLINK-36080          
1 66801U 25278L   25345.83335648 -.01264074  00000+0 -46780-2 0  9996
2 66801  42.9973 257.6543 0001859 257.4929  12.9732 15.89588118  2819
STARLINK-35604          
1 66802U 25278M   25345.83335648 -.01231215  00000+0 -45762-2 0  9997
2 66802  42.9977 257.6897 0001789 257.0797 359.6735 15.89439584  2813
STARLINK-35565          
1 66803U 25278N   25345.83335648 -.01242379  00000+0 -46108-2 0  9996
2 66803  42.9976 257.6783 0001825 255.9827   5.2830 15.89490265  2902
STARLINK-36038          
1 66804U 25278P   25345.83335648 -.01251476  00000+0 -46436-2 0  9999
2 66804  42.9977 257.6720 0001846 258.4447   5.3747 15.89512076  2817
STARLINK-36049          
1 66805U 25278Q   25345.83335648 -.01261200  00000+0 -46716-2 0  9997
2 66805  42.9975 257.6605 0001833 258.3771   9.8372 15.89564867  2811
STARLINK-36069          
1 66806U 25278R   25345.83335648 -.01254801  00000+0 -46503-2 0  9991
2 66806  42.9978 257.6671 0001821 256.5209   9.2226 15.89542432  2604
STARLINK-36000          
1 66807U 25278S   25345.83335648 -.01274226  00000+0 -47135-2 0  9997
2 66807  42.9977 257.6494 0001888 258.9778  13.7383 15.89616008  2871
STARLINK-36071          
1 66808U 25278T   25345.83335648 -.01278624  00000+0 -47258-2 0  9990
2 66808  42.9978 257.6437 0001822 256.7346  18.1161 15.89642217  2813
STARLINK-35979          
1 66809U 25278U   25345.83335648 -.01295670  00000+0 -47797-2 0  9999
2 66809  42.9976 257.6250 0001903 255.5542  26.7831 15.89711649  2815
STARLINK-36046          
1 66810U 25278V   25345.83335648 -.01285669  00000+0 -47494-2 0  9992
2 66810  42.9978 257.6377 0001869 256.5780  20.8210 15.89665203  2589
STARLINK-36045          
1 66811U 25278W   25345.83335648 -.01293604  00000+0 -47772-2 0  9990
2 66811  42.9978 257.6312 0001847 259.5260  20.4632 15.89687543  2812
STARLINK-36054          
1 66812U 25278X   25345.83335648 -.01304066  00000+0 -48078-2 0  9996
2 66812  42.9978 257.6198 0001842 259.3142  25.0889 15.89740598  2812
